STARLINK-32247          
1 60446U 24144X   24231.91667824 -.00723778  18319-3 -14778-2 0  9990
2 60446  53.1548 344.4131 0000643  28.5259 262.5478 15.98689604  2273
STARLINK-32101          
1 60447U 24144Y   24231.91667824 -.00709194  17608-3 -14738-2 0  9993
2 60447  53.1547 344.4264 0000766  30.4522 254.4885 15.98372173  2183
PROGRESS-MS 28          
1 60450U 24145A   24231.48607253  .00025002  00000+0  43920-3 0  9997
2 60450  51.6405   6.6966 0005112 219.7060 140.3555 15.50342226468219
LEGION 3                
1 60452U 24146A   24231.91266203  .00041754  00000+0  10663-2 0  9993
2 60452  44.9934  29.4272 0004490   9.4161 350.6810 15.38854663   514
LEGION 4                
1 60453U 24146B   24231.89152034  .00001514  00000+0  36438-3 0  9996
2 60453  45.0403  28.7415 0003840 172.9121 187.1791 14.57383362   489
2024-147A               
1 60454U 24147A   24229.33667148 -.24999360  00000+0 -11450+1 0  9998
2 60454  37.3940 298.3182 0057903 339.7732  66.5482 15.27328733    22
2024-147B               
1 60455U 24147B   24229.33651731 -.20359273  00000+0 -67914+0 0  9994
2 60455  37.4008 298.2959 0071950 332.9219  75.5711 15.34848233    17
2024-147C               
1 60456U 24147C   24229.33376800 -.00000141  00000+0  00000+0 0  9993
2 60456  36.7021 296.7344 0002000 241.8333 162.4276 15.59389300    26
2024-147D               
1 60457U 24147D   24229.27565233 -.00000139  00000+0  00000+0 0  9994
2 60457  37.3655 298.5644 0030893 340.7502  91.2708 15.37476348    11
2024-148B               
1 60459U 24148B   24229.77010280 -.00000037  00000+0  00000+0 0  9996
2 60459  34.9983  52.5507 0005456 265.4277 170.8466 15.23157575    13
2024-148C               
1 60460U 24148C   24229.77012480 -.00000037  00000+0  00000+0 0  9992
2 60460  35.0053  52.5662 0006844 304.7117 131.7537 15.23070113    16
2024-148D               
1 60461U 24148D   24229.77012497 -.00000037  00000+0  00000+0 0  9991
2 60461  35.0064  52.5550 0004193 271.4692 165.1011 15.23027782    10
2024-148E               
1 60462U 24148E   24229.78005293 -.00000037  00000+0  00000+0 0  9999
2 60462  34.9959  52.4692 0005632 272.2458 218.9284 15.23207088    14
2024-148F               
1 60463U 24148F   24229.77011742 -.00000037  00000+0  00000+0 0  9995
2 60463  35.0074  52.5562 0005617 289.3698 147.3805 15.23186916    10
2024-148G               
1 60464U 24148G   24229.77028378 -.00000037  00000+0  00000+0 0  9999
2 60464  34.9998  52.5552 0006591 292.1760 145.5486 15.23167993    16
2024-148H               
1 60465U 24148H   24229.77781998 -.00000037  00000+0  00000+0 0  9994
2 60465  35.0021  52.4927 0007579 281.5365 197.6319 15.23525552    13
2024-148J               
1 60466U 24148J   24229.69907041 -.00000038  00000+0  00000+0 0  9996
2 60466  35.0064  52.9981 0006868 279.6098 127.0495 15.23586497    03
2024-148K               
1 60467U 24148K   24229.69296541 -.00000075  00000+0  00000+0 0  9994
2 60467  35.0127  52.9499 0126507   0.6702  48.3054 15.50961211    02
NOAA 1                  
1 04793U 70106A   24231.72858934 -.00000014  00000+0  18193-3 0  9995
2 04793 101.4417 281.7198 0031388 213.8167 258.5003 12.54031135457026
NOAA 2 (ITOS-D)         
1 06235U 72082A   24231.90898479 -.00000007  00000+0  25077-3 0  9992
2 06235 102.0187 231.6089 0004184   7.6570  51.0934 12.53184452371365
NOAA 3                  
1 06920U 73086A   24231.95035441 -.00000014  00000+0  23894-3 0  9998
2 06920 102.2799 228.4914 0006128 271.7247 144.1017 12.40370195299174
NOAA 4                  
1 07529U 74089A   24231.88585215 -.00000021  00000+0  15869-3 0  9990
2 07529 101.9917 226.7315 0009294  30.9163  28.4236 12.53182906275933
NOAA 5                  
1 09057U 76077A   24231.91322594 -.00000031  00000+0  11376-3 0  9990
2 09057 102.2129 205.2414 0009891 118.3144 298.5834 12.37803911171910
TIROS N                 
1 11060U 78096A   24231.68851330  .00000584  00000+0  30029-3 0  9997
2 11060  98.5286 269.7373 0010771  21.7062 338.4568 14.18887343584077
NOAA 6                  
1 11416U 79057A   24231.67573760  .00001088  00000+0  40024-3 0  9993
2 11416  98.6278 252.8220 0011251  77.8587 282.3857 14.34639373355212
NOAA 7                  
1 12553U 81059A   24231.80025336  .00000236  00000+0  13840-3 0  9997
2 12553  98.8891 291.1688 0011736  21.1527 339.0130 14.17560791230186
NOAA 8                  
1 13923U 83022A   24231.93821869  .00000665  00000+0  27859-3 0  9991
2 13923  98.7331 232.0226 0015873  52.6683 307.5942 14.29315360155737
NOAA 9                  
1 15427U 84123A   24231.96115425  .00000550  00000+0  29847-3 0  9994
2 15427  99.1213 230.9462 0015803  79.6056 334.2329 14.16653539 48935
NOAA 10                 
1 16969U 86073A   24231.95822615  .00000610  00000+0  25977-3 0  9994
2 16969  98.6458 217.3166 0012741 143.8121 275.7203 14.28685604974116
NOAA 11                 
1 19531U 88089A   24231.91313799  .00000338  00000+0  19412-3 0  9999
2 19531  98.5236 191.7289 0012129  57.5802 302.6544 14.15572061853061
NOAA 12                 
1 21263U 91032A   24231.91972499  .00000462  00000+0  20984-3 0  9998
2 21263  98.5623 221.6334 0013763 173.4639 186.6723 14.26364621729829
NOAA 13                 
1 22739U 93050A   24231.87316253  .00000509  00000+0  29377-3 0  9991
2 22739  98.6108 187.0109 0008482 230.6187 129.4235 14.13268947599107
NOAA 14                 
1 23455U 94089A   24231.90849616  .00000278  00000+0  16650-3 0  9991
2 23455  98.4364 224.4478 0009067 195.1063 164.9842 14.14427540528868
NOAA 15                 
1 25338U 98030A   24231.93742300  .00000665  00000+0  29265-3 0  9994
2 25338  98.5667 257.7484 0011161 136.9286 223.2770 14.26670102366137
NOAA 16                 
1 26536U 00055A   24231.93675848  .00000355  00000+0  21009-3 0  9991
2 26536  98.5277 268.6543 0011422  59.8931 300.3374 14.13623076529448
NOAA 17                 
1 27453U 02032A   24231.95415849  .00000658  00000+0  29612-3 0  9996
2 27453  98.7667 182.5247 0012635 123.1454 237.0939 14.25654540151895
NOAA 18                 
1 28654U 05018A   24231.86424007  .00000583  00000+0  33438-3 0  9991
2 28654  98.8718 308.3036 0013323 243.2917 116.6892 14.13290629992023
NOAA 19                 
1 33591U 09005A   24231.89544731  .00000543  00000+0  31470-3 0  9997
2 33591  99.0427 288.3450 0014804 114.4545 245.8172 14.13084101800229
SUOMI NPP               
1 37849U 11061A   24231.91520987  .00000367  00000+0  19473-3 0  9995
2 37849  98.7229 168.9561 0002028  83.5912 276.5495 14.19552694663779
NOAA 20 (JPSS-1)        
1 43013U 17073A   24231.86155508  .00000338  00000+0  18078-3 0  9999
2 43013  98.7071 168.7358 0002253  64.5871 295.5538 14.19564790349791
NOAA 21 (JPSS-2)        
1 54234U 22150A   24231.89748736  .00000380  00000+0  20124-3 0  9994
2 54234  98.7526 169.0602 0001039  43.6195 316.5063 14.19553437 91873
ISS (ZARYA)             
1 25544U 98067A   24232.13004630  .00031266  00000+0  54594-3 0  9997
2 25544  51.6417   3.5012 0005136 219.3955 137.2678 15.50387886468302
CSS (TIANHE)            
1 48274U 21035A   24231.89832333  .00060764  00000+0  69868-3 0  9999
2 48274  41.4679  60.9406 0002742 266.1352  93.9174 15.61105006188907
ISS (NAUKA)             
1 49044U 21066A   24231.89863818  .00031455  00000+0  54945-3 0  9996
2 49044  51.6417   4.6488 0005149 218.6286 285.6069 15.50373646174007
FREGAT DEB              
1 49271U 11037PF  24231.19410470  .00007887  00000+0  17013-1 0  9995
2 49271  51.6520 169.2023 0962447 261.0019  88.0844 12.20313898142767
CSS (WENTIAN)           
1 53239U 22085A   24231.89832333  .00060764  00000+0  69868-3 0  9992
2 53239  41.4679  60.9406 0002742 266.1352  93.9174 15.61105006118198
CSS (MENGTIAN)          
1 54216U 22143A   24231.89832333  .00060764  00000+0  69868-3 0  9993
2 54216  41.4679  60.9406 0002742 266.1352  93.9174 15.61105006101837
TIANZHOU-7              
1 58811U 24013A   24231.89832333  .00060764  00000+0  69868-3 0  9996
2 58811  41.4679  60.9406 0002742 266.1352  93.9174 15.61105006159925
CREW DRAGON 8           
1 59097U 24042A   24231.89863818  .00031455  00000+0  54945-3 0  9992
2 59097  51.6417   4.6488 0005149 218.6286 285.6069 15.50373646 25797
SOYUZ-MS 25             
1 59294U 24055A   24231.89863818  .00031455  00000+0  54945-3 0  9995
2 59294  51.6417   4.6488 0005149 218.6286 285.6069 15.50373646   317
MICROORBITER-1          
1 59483U 98067WF  24227.81382283  .01262861  90537-3  19362-2 0  9997
2 59483  51.6215   9.0362 0011764 296.2858  63.6945 16.03750466 19731
CURTIS                  
1 59507U 98067WG  24231.73813340  .00316907  00000+0  15326-2 0  9991
2 59507  51.6253 353.3000 0008345 285.8827  74.1255 15.81055937 20307
1998-067WJ              
1 59559U 98067WJ  24231.59381804  .00322761  00000+0  16891-2 0  9990
2 59559  51.6299 355.3763 0005476 307.7198  52.3307 15.79336450 19133
1998-067WL              
1 59561U 98067WL  24231.59853564  .00083500  00000+0  90881-3 0  9997
2 59561  51.6338   0.6890 0001621 231.0118 129.0732 15.62706788 19030
BURSTCUBE               
1 59562U 98067WM  24231.77743379  .00270333  00000+0  14291-2 0  9992
2 59562  51.6300 354.3548 0006369 290.6556  69.3762 15.79250809 19147
SNOOPI                  
1 59563U 98067WN  24231.59862761  .00238536  00000+0  15642-2 0  9990
2 59563  51.6330 356.9349 0005758 294.4356  65.6042 15.74475704 19091
SHENZHOU-18 (SZ-18)     
1 59591U 24078A   24231.89832333  .00060764  00000+0  69868-3 0  9993
2 59591  41.4679  60.9406 0002742 266.1352  93.9174 15.61105006 17025
1998-067WP              
1 59596U 98067WP  24231.75263670  .00807102  29367-3  19808-2 0  9998
2 59596  51.6261 351.1327 0010433 318.0972  41.9237 15.95416494 19217
